{
  "links" : {
    "next" : "https://api.nasa.gov/neo/rest/v1/feed?start_date=2008-10-23&end_date=2008-10-23&detailed=true&api_key=t0TVs3DtDT2H8Oy2Zy8m2eVrNsAVKAexjcZXUckd",
    "prev" : "https://api.nasa.gov/neo/rest/v1/feed?start_date=2008-10-21&end_date=2008-10-21&detailed=true&api_key=t0TVs3DtDT2H8Oy2Zy8m2eVrNsAVKAexjcZXUckd",
    "self" : "https://api.nasa.gov/neo/rest/v1/feed?start_date=2008-10-22&end_date=2008-10-22&detailed=true&api_key=t0TVs3DtDT2H8Oy2Zy8m2eVrNsAVKAexjcZXUckd"
  },
  "element_count" : 7,
  "near_earth_objects" : {
    "2008-10-22" : [ {
      "links" : {
        "self" : "https://api.nasa.gov/neo/rest/v1/neo/2478784?api_key=t0TVs3DtDT2H8Oy2Zy8m2eVrNsAVKAexjcZXUckd"
      },
      "neo_reference_id" : "2478784",
      "name" : "478784 (2012 UV136)",
      "nasa_jpl_url" : "http://ssd.jpl.nasa.gov/sbdb.cgi?sstr=2478784",
      "absolute_magnitude_h" : 25.5,
      "estimated_diameter" : {
        "kilometers" : {
          "estimated_diameter_min" : 0.0211132445,
          "estimated_diameter_max" : 0.0472106499
        },
        "meters" : {
          "estimated_diameter_min" : 21.113244479,
          "estimated_diameter_max" : 47.2106498806
        },
        "miles" : {
          "estimated_diameter_min" : 0.0131191578,
          "estimated_diameter_max" : 0.0293353287
        },
        "feet" : {
          "estimated_diameter_min" : 69.2691770164,
          "estimated_diameter_max" : 154.8905885541
        }
      },
      "is_potentially_hazardous_asteroid" : false,
      "close_approach_data" : [ {
        "close_approach_date" : "2008-10-22",
        "epoch_date_close_approach" : 1224658800000,
        "relative_velocity" : {
          "kilometers_per_second" : "16.8045280418",
          "kilometers_per_hour" : "60496.3009505023",
          "miles_per_hour" : "37590.0487767163"
        },
        "miss_distance" : {
          "astronomical" : "0.4325336361",
          "lunar" : "168.2555847168",
          "kilometers" : "64706108",
          "miles" : "40206512"
        },
        "orbiting_body" : "Earth"
      } ],
      "orbital_data" : {
        "orbit_id" : "35",
        "orbit_determination_date" : "2017-07-19 06:20:44",
        "orbit_uncertainty" : "1",
        "minimum_orbit_intersection" : ".0115803",
        "jupiter_tisserand_invariant" : "6.036",
        "epoch_osculation" : "2458000.5",
        "eccentricity" : ".1389438264599787",
        "semi_major_axis" : "1.007463701210886",
        "inclination" : "2.211585834804122",
        "ascending_node_longitude" : "210.0934518868971",
        "orbital_period" : "369.3537716324088",
        "perihelion_distance" : ".8674828395451126",
        "perihelion_argument" : "288.9949621880157",
        "aphelion_distance" : "1.147444562876659",
        "perihelion_time" : "2458164.170427367310",
        "mean_anomaly" : "200.4744762945812",
        "mean_motion" : ".9746753049493212",
        "equinox" : "J2000"
      }
    } ]
  }
}